CTC1_L_00099016-03
1 75045U 25203RY  26070.40832176  .00000000  00000+0  00000-0 0  9998
2 75045  70.0000 180.0000 0000000   0.0000   0.0000 14.42576008    17
CTC1_L_00099016-04
1 75046U 24255TC  26070.40832176  .00000000  00000+0  00000-0 0  9995
2 75046  70.0000 180.0000 0000000   0.0000  90.0000 14.42576008    17
CTC1_L_00099017-01
1 75047U 25793HB  26070.40832176  .00000000  00000+0  00000-0 0  9994
2 75047  70.0000 192.0000 0000000   0.0000 192.0000 14.42576008    14
CTC1_L_00099017-02
1 75048U 25750UZ  26070.40832176  .00000000  00000+0  00000-0 0  9998
2 75048  70.0000 192.0000 0000000   0.0000 282.0000 14.42576008    15
CTC1_L_00099017-03
1 75049U 22938ZJ  26070.40832176  .00000000  00000+0  00000-0 0  9994
2 75049  70.0000 192.0000 0000000   0.0000  12.0000 14.42576008    17
CTC1_L_00099017-04
1 75050U 24687DN  26070.40832176  .00000000  00000+0  00000-0 0  9999
2 75050  70.0000 192.0000 0000000   0.0000 102.0000 14.42576008    19
CTC1_L_00099018-01
1 75051U 22046RJ  26070.40832176  .00000000  00000+0  00000-0 0  9997
2 75051  70.0000 204.0000 0000000   0.0000 204.0000 14.42576008    17
CTC1_L_00099018-02
1 75052U 25581CG  26070.40832176  .00000000  00000+0  00000-0 0  9995
2 75052  70.0000 204.0000 0000000   0.0000 294.0000 14.42576008    17
CTC1_L_00099018-03
1 75053U 25379FE  26070.40832176  .00000000  00000+0  00000-0 0  9991
2 75053  70.0000 204.0000 0000000   0.0000  24.0000 14.42576008    19
CTC1_L_00099018-04
1 75054U 22709PZ  26070.40832176  .00000000  00000+0  00000-0 0  9996
2 75054  70.0000 204.0000 0000000   0.0000 114.0000 14.42576008    10
CTC1_L_00099019-01
1 75055U 22671RK  26070.40832176  .00000000  00000+0  00000-0 0  9995
2 75055  70.0000 216.0000 0000000   0.0000 216.0000 14.42576008    17
CTC1_L_00099019-02
1 75056U 22505EN  26070.40832176  .00000000  00000+0  00000-0 0  9992
2 75056  70.0000 216.0000 0000000   0.0000 306.0000 14.42576008    18
CTC1_L_00099019-03
1 75057U 26913PE  26070.40832176  .00000000  00000+0  00000-0 0  9990
2 75057  70.0000 216.0000 0000000   0.0000  36.0000 14.42576008    19
CTC1_L_00099019-04
1 75058U 22298WI  26070.40832176  .00000000  00000+0  00000-0 0  9993
2 75058  70.0000 216.0000 0000000   0.0000 126.0000 14.42576008    10
CTC1_L_00099020-01
1 75059U 23783BJ  26070.40832176  .00000000  00000+0  00000-0 0  9994
2 75059  70.0000 228.0000 0000000   0.0000 228.0000 14.42576008    17
CTC1_L_00099020-02
1 75060U 25544FC  26070.40832176  .00000000  00000+0  00000-0 0  9993
2 75060  70.0000 228.0000 0000000   0.0000 318.0000 14.42576008    19
CTC1_L_00099020-03
1 75061U 26899O   26070.40832176  .00000000  00000+0  00000-0 0  9998
2 75061  70.0000 228.0000 0000000   0.0000  48.0000 14.42576008    10
CTC1_L_00099020-04
1 75062U 24107PZ  26070.40832176  .00000000  00000+0  00000-0 0  9999
2 75062  70.0000 228.0000 0000000   0.0000 138.0000 14.42576008    11
CTC1_L_00099021-01
1 75063U 26903XY  26070.40832176  .00000000  00000+0  00000-0 0  9996
2 75063  70.0000 240.0000 0000000   0.0000 240.0000 14.42576008    10
CTC1_L_00099021-02
1 75064U 25824OF  26070.40832176  .00000000  00000+0  00000-0 0  9998
2 75064  70.0000 240.0000 0000000   0.0000 330.0000 14.42576008    11
CTC1_L_00099021-03
1 75065U 26604OK  26070.40832176  .00000000  00000+0  00000-0 0  9996
2 75065  70.0000 240.0000 0000000   0.0000  60.0000 14.42576008    12
CTC1_L_00099021-04
1 75066U 25887VO  26070.40832176  .00000000  00000+0  00000-0 0  9999
2 75066  70.0000 240.0000 0000000   0.0000 150.0000 14.42576008    13
CTC1_L_00099022-01
1 75067U 25660V   26070.40832176  .00000000  00000+0  00000-0 0  9999
2 75067  70.0000 252.0000 0000000   0.0000 252.0000 14.42576008    10
CTC1_L_00099022-02
1 75068U 25514IY  26070.40832176  .00000000  00000+0  00000-0 0  9998
2 75068  70.0000 252.0000 0000000   0.0000 342.0000 14.42576008    11
CTC1_L_00099022-03
1 75069U 23435ME  26070.40832176  .00000000  00000+0  00000-0 0  9999
2 75069  70.0000 252.0000 0000000   0.0000  72.0000 14.42576008    12
CTC1_L_00099022-04
1 75070U 25477MV  26070.40832176  .00000000  00000+0  00000-0 0  9999
2 75070  70.0000 252.0000 0000000   0.0000 162.0000 14.42576008    14
CTC1_L_00099023-01
1 75071U 23739RM  26070.40832176  .00000000  00000+0  00000-0 0  9999
2 75071  70.0000 264.0000 0000000   0.0000 264.0000 14.42576008    11
CTC1_L_00099023-02
1 75072U 25738BG  26070.40832176  .00000000  00000+0  00000-0 0  9991
2 75072  70.0000 264.0000 0000000   0.0000 354.0000 14.42576008    12
CTC1_L_00099023-03
1 75073U 25041RH  26070.40832176  .00000000  00000+0  00000-0 0  9999
2 75073  70.0000 264.0000 0000000   0.0000  84.0000 14.42576008    13
CTC1_L_00099023-04
1 75074U 25035VM  26070.40832176  .00000000  00000+0  00000-0 0  9993
2 75074  70.0000 264.0000 0000000   0.0000 174.0000 14.42576008    14
CTC1_L_00099024-01
1 75075U 26240FY  26070.40832176  .00000000  00000+0  00000-0 0  9993
2 75075  70.0000 276.0000 0000000   0.0000 276.0000 14.42576008    11
CTC1_L_00099024-02
1 75076U 22282FI  26070.40832176  .00000000  00000+0  00000-0 0  9996
2 75076  70.0000 276.0000 0000000   0.0000   6.0000 14.42576008    13
CTC1_L_00099024-03
1 75077U 23625DN  26070.40832176  .00000000  00000+0  00000-0 0  9999
2 75077  70.0000 276.0000 0000000   0.0000  96.0000 14.42576008    13
CTC1_L_00099024-04
1 75078U 22839PB  26070.40832176  .00000000  00000+0  00000-0 0  9996
2 75078  70.0000 276.0000 0000000   0.0000 186.0000 14.42576008    14
CTC1_L_00099025-01
1 75079U 25696HE  26070.40832176  .00000000  00000+0  00000-0 0  9991
2 75079  70.0000 288.0000 0000000   0.0000 288.0000 14.42576008    11
CTC1_L_00099025-02
1 75080U 22691QJ  26070.40832176  .00000000  00000+0  00000-0 0  9995
2 75080  70.0000 288.0000 0000000   0.0000  18.0000 14.42576008    14
CTC1_L_00099025-03
1 75081U 26513MA  26070.40832176  .00000000  00000+0  00000-0 0  9993
2 75081  70.0000 288.0000 0000000   0.0000 108.0000 14.42576008    15
CTC1_L_00099025-04
1 75082U 26190XO  26070.40832176  .00000000  00000+0  00000-0 0  9995
2 75082  70.0000 288.0000 0000000   0.0000 198.0000 14.42576008    15
CTC1_L_00099026-01
1 75083U 24497WX  26070.40832176  .00000000  00000+0  00000-0 0  9994
2 75083  70.0000 300.0000 0000000   0.0000 300.0000 14.42576008    16
CTC1_L_00099026-02
1 75084U 23970RM  26070.40832176  .00000000  00000+0  00000-0 0  9990
2 75084  70.0000 300.0000 0000000   0.0000  30.0000 14.42576008    17
CTC1_L_00099026-03
1 75085U 22561FG  26070.40832176  .00000000  00000+0  00000-0 0  9996
2 75085  70.0000 300.0000 0000000   0.0000 120.0000 14.42576008    18
CTC1_L_00099026-04
1 75086U 25314EG  26070.40832176  .00000000  00000+0  00000-0 0  9996
2 75086  70.0000 300.0000 0000000   0.0000 210.0000 14.42576008    19
CTC1_L_00099027-01
1 75087U 22436UH  26070.40832176  .00000000  00000+0  00000-0 0  9999
2 75087  70.0000 312.0000 0000000   0.0000 312.0000 14.42576008    16
CTC1_L_00099027-02
1 75088U 26251SG  26070.40832176  .00000000  00000+0  00000-0 0  9999
2 75088  70.0000 312.0000 0000000   0.0000  42.0000 14.42576008    17
CTC1_L_00099027-03
1 75089U 24396SA  26070.40832176  .00000000  00000+0  00000-0 0  9998
2 75089  70.0000 312.0000 0000000   0.0000 132.0000 14.42576008    18
CTC1_L_00099027-04
1 75090U 24256HO  26070.40832176  .00000000  00000+0  00000-0 0  9995
2 75090  70.0000 312.0000 0000000   0.0000 222.0000 14.42576008    10
CTC1_L_00099028-01
1 75091U 22518OM  26070.40832176  .00000000  00000+0  00000-0 0  9995
2 75091  70.0000 324.0000 0000000   0.0000 324.0000 14.42576008    17
CTC1_L_00099028-02
1 75092U 23268VS  26070.40832176  .00000000  00000+0  00000-0 0  9999
2 75092  70.0000 324.0000 0000000   0.0000  54.0000 14.42576008    18
CTC1_L_00099028-03
1 75093U 25892VB  26070.40832176  .00000000  00000+0  00000-0 0  9995
2 75093  70.0000 324.0000 0000000   0.0000 144.0000 14.42576008    19
CTC1_L_00099028-04
1 75094U 24546YI  26070.40832176  .00000000  00000+0  00000-0 0  9991
2 75094  70.0000 324.0000 0000000   0.0000 234.0000 14.42576008    10
CTC1_L_00099029-01
1 75095U 26223SE  26070.40832176  .00000000  00000+0  00000-0 0  9996
2 75095  70.0000 336.0000 0000000   0.0000 336.0000 14.42576008    17
CTC1_L_00099029-02
1 75096U 25201GX  26070.40832176  .00000000  00000+0  00000-0 0  9992
2 75096  70.0000 336.0000 0000000   0.0000  66.0000 14.42576008    18
CTC1_L_00099029-03
1 75097U 25274IL  26070.40832176  .00000000  00000+0  00000-0 0  9993
2 75097  70.0000 336.0000 0000000   0.0000 156.0000 14.42576008    19
CTC1_L_00099029-04
1 75098U 23931XO  26070.40832176  .00000000  00000+0  00000-0 0  9992
2 75098  70.0000 336.0000 0000000   0.0000 246.0000 14.42576008    10
CTC1_L_00099030-01
1 75099U 22555LB  26070.40832176  .00000000  00000+0  00000-0 0  9994
2 75099  70.0000 348.0000 0000000   0.0000 348.0000 14.42576008    17
CTC1_L_00099030-02
1 75100U 24964WD  26070.40832176  .00000000  00000+0  00000-0 0  9993
2 75100  70.0000 348.0000 0000000   0.0000  78.0000 14.42576008    10
CTC1_L_00099030-03
1 75101U 24218TM  26070.40832176  .00000000  00000+0  00000-0 0  9996
2 75101  70.0000 348.0000 0000000   0.0000 168.0000 14.42576008    11
CTC1_L_00099030-04
1 75102U 25524KO  26070.40832176  .00000000  00000+0  00000-0 0  9998
2 75102  70.0000 348.0000 0000000   0.0000 258.0000 14.42576008    12
